[{"OBJECT_NAME":"OBJECT M","OBJECT_ID":"2025-155M","EPOCH":"2026-03-09T22:37:12.666144","MEAN_MOTION":15.33288683,"ECCENTRICITY":0.00088001,"INCLINATION":97.4429,"RA_OF_ASC_NODE":38.1052,"ARG_OF_PERICENTER":139.1253,"MEAN_ANOMALY":221.0651,"EPHEMERIS_TYPE":0,"CLASSIFICATION_TYPE":"U","NORAD_CAT_ID":64887,"ELEMENT_SET_NO":999,"REV_AT_EPOCH":6565,"BSTAR":0.00087834095,"MEAN_MOTION_DOT":0.00028279,"MEAN_MOTION_DDOT":0},{"OBJECT_NAME":"STARLINK-35750","OBJECT_ID":"2025-244D","EPOCH":"2026-03-09T18:10:47.607744","MEAN_MOTION":15.30194327,"ECCENTRICITY":0.00010834,"INCLINATION":53.1591,"RA_OF_ASC_NODE":229.3372,"ARG_OF_PERICENTER":80.4062,"MEAN_ANOMALY":279.7061,"EPHEMERIS_TYPE":0,"CLASSIFICATION_TYPE":"U","NORAD_CAT_ID":66209,"ELEMENT_SET_NO":999,"REV_AT_EPOCH":2167,"BSTAR":0.00095626258,"MEAN_MOTION_DOT":0.00028065,"MEAN_MOTION_DDOT":0}]
